ONEWEB-0388             
1 49314U 21090AM  22077.58334491 -.00040846  00000+0 -10248+0 0  9995
2 49314  87.9116 253.3103 0001649  92.7715 236.6505 13.19750196  3308
2021-091A               
1 49315U 21091A   22077.51198840  .00010116  00000+0  47210-3 0  9994
2 49315  97.4690 266.5212 0018704 100.2830 340.3519 15.19877558 23542
2021-091B               
1 49316U 21091B   22077.51445089  .00002508  00000+0  12669-3 0  9991
2 49316  97.4628 266.0916 0017286  84.7858 352.7324 15.17884446 23521
2021-091C               
1 49317U 21091C   22077.50775313  .00003214  00000+0  16043-3 0  9992
2 49317  97.4619 266.0802 0017435  85.6922 358.7472 15.18085564 23518
2021-091D               
1 49318U 21091D   22077.47716453  .00002514  00000+0  12828-3 0  9998
2 49318  97.4619 265.9811 0018423  92.6367 351.0503 15.17512376 23501
2021-091E               
1 49319U 21091E   22077.49444051  .00003515  00000+0  17428-3 0  9996
2 49319  97.4630 266.1231 0018058  87.6637 356.3433 15.18251500 23513
2021-091F               
1 49320U 21091F   22077.48069847  .00005345  00000+0  26088-3 0  9998
2 49320  97.4622 266.1299 0017145  87.0532 356.7038 15.18575526 23516
2021-091G               
1 49321U 21091G   22077.48958940  .00003513  00000+0  17390-3 0  9991
2 49321  97.4629 266.1337 0017062  87.4107 356.5515 15.18327758 23517
2021-091H               
1 49322U 21091H   22077.48185762  .00004463  00000+0  21881-3 0  9991
2 49322  97.4625 266.1320 0018004  88.2567 355.4853 15.18499547 23522
2021-091J               
1 49323U 21091J   22077.47764051  .00005348  00000+0  26068-3 0  9990
2 49323  97.4625 266.1450 0018148  87.7229 355.9434 15.18607135 23529
2021-091K               
1 49324U 21091K   22077.50990650  .00008388  00000+0  39945-3 0  9996
2 49324  97.4491 265.9930 0017242  91.0476 347.0189 15.19258933 23536
2021-091L               
1 49325U 21091L   22077.49876829  .00011169  00000+0  52658-3 0  9993
2 49325  97.4742 266.5071 0017151  92.5966 347.1776 15.19526483 23539
SHENZHOU-13 (SZ-13)     
1 49326U 21092A   22077.39609958  .00019851  00000+0  21644-3 0  9998
2 49326  41.4697  51.9758 0005685 196.7130 299.5120 15.62892305 50579
SHIJIAN-21 (SJ-21)      
1 49330U 21094A   22077.64902595  .00000106  00000+0  00000+0 0  9998
2 49330   8.2884  50.5396 0110316  11.4534  27.3766  1.00427216  1699
SES-17                  
1 49332U 21095A   22075.75000000 -.00000136  00000+0  00000+0 0  9995
2 49332   0.8792 252.3503 1942233 197.1048 282.1133  1.06533280  2261
SYRACUSE 4A             
1 49333U 21095B   22072.03894850 -.00000122  00000+0  00000+0 0  9993
2 49333   1.6522 243.8504 3312674 207.3180 348.2098  1.11301177  2337
QZS-1R                  
1 49336U 21096A   22077.40064208 -.00000209  00000+0  00000+0 0  9995
2 49336  34.2851 103.2549 0748483 269.3304  81.3374  1.00291438  1459
JILIN-01 GAOFEN 2F      
1 49338U 21097A   22077.57067425  .00004296  00000+0  27134-3 0  9990
2 49338  97.5431 185.7613 0010762 135.6912 281.9126 15.09546854 21472
PROGRESS-MS 18          
1 49379U 21098A   22077.48422638  .00006832  00000+0  12996-3 0  9995
2 49379  51.6427  65.8013 0004001 281.6849 221.6044 15.49464203331111
YAOGAN-32 2A            
1 49383U 21099A   22077.51761356  .00000605  00000+0  13769-3 0  9999
2 49383  98.1018 204.6832 0001588  79.2352 280.9032 14.59284141 19712
YAOGAN-32 2B            
1 49384U 21099B   22077.51747130  .00000603  00000+0  13716-3 0  9994
2 49384  98.1029 204.7044 0001477  84.4973 275.6406 14.59284271 19715
SDGSAT 1                
1 49387U 21100A   22077.52111644  .00002404  00000+0  11588-3 0  9992
2 49387  97.4761 139.3379 0011024 158.5968 312.8055 15.19637674 20265
YAOGAN-35 A             
1 49390U 21101A   22077.78760382  .00005167  00000+0  21521-3 0  9991
2 49390  34.9980 311.5473 0002676  35.7832  45.5273 15.23103093 20222
YAOGAN-35 B             
1 49391U 21101B   22077.71601384  .00008232  00000+0  34128-3 0  9994
2 49391  34.9996 311.9535 0005942 358.4232  66.6347 15.23145621 20219
YAOGAN-35 C             
1 49393U 21101D   22077.14226803 -.00012784  00000+0 -52844-3 0  9996
2 49393  34.9985 315.6013 0001505 352.3594 144.0107 15.23103988 20132
ASTERISC                
1 49395U 21102A   22077.16081390  .00002941  00000+0  23842-3 0  9999
2 49395  97.5475 138.0821 0016388 173.6565 186.4870 15.00336378 19360
TEIKYOSAT-4 (OORURI)    
1 49396U 21102B   22077.59942331  .00000330  00000+0  30808-4 0  9999
2 49396  97.5517 138.4658 0019306 199.1701 160.8799 15.00452913 19425
RAISE 2                 
1 49397U 21102C   22077.16831612  .00001331  00000+0  10921-3 0  9997
2 49397  97.5376 138.0151 0011853 197.0851 162.9976 15.00810996 19367
2021-102D               
1 49398U 21102D   22077.50718869  .00002342  00000+0  18457-3 0  9999
2 49398  97.5443 138.4162 0014386 179.4860 180.6382 15.01650883 19420
Z-SAT                   
1 49399U 21102E   22077.51865553  .00002210  00000+0  17145-3 0  9991
2 49399  97.5473 138.7588 0022875 179.3756 180.7502 15.02183503 19431
HIBARI                  
1 49400U 21102F   22077.49939323  .00001824  00000+0  14120-3 0  9998
2 49400  97.5482 138.7487 0022794 168.2503 191.9259 15.02491380 19437
DRUMS                   
1 49401U 21102G   22077.42148807  .00001166  00000+0  91729-4 0  9991
2 49401  97.5498 138.7431 0022106 164.2802 195.9114 15.02558907 19421
KOSEN-1                 
1 49402U 21102H   22077.50779772  .00002213  00000+0  16745-3 0  9990
2 49402  97.5429 138.8194 0023048 167.0259 193.1565 15.03137535 19449
2021-102J               
1 49403U 21102J   22077.56579331  .00002407  00000+0  18079-3 0  9993
2 49403  97.5429 138.8924 0023260 165.1999 194.9913 15.03328045 19452
CREW DRAGON 3           
1 49407U 21103A   22077.48422638  .00006832  00000+0  12996-3 0  9994
2 49407  51.6427  65.8013 0004001 281.6849 221.6044 15.49464203331113
STARLINK-3151           
1 49408U 21104A   22077.58334491 -.00003601  00000+0 -20809-3 0  9991
2 49408  53.2158 267.8860 0001971  50.3254 235.1362 15.08871816 20509
STARLINK-3075           
1 49409U 21104B   22077.58334491 -.00003249  00000+0 -18609-3 0  9995
2 49409  53.2188 267.8778 0002198  52.8273 152.6972 15.08846630 20507
STARLINK-3147           
1 49410U 21104C   22077.58334491 -.00002464  00000+0 -13673-3 0  9991
2 49410  53.2156 267.8884 0002070  49.2238 196.1379 15.08842090  3615
STARLINK-3162           
1 49411U 21104D   22077.58334491 -.00013694  00000+0 -84342-3 0  9990
2 49411  53.2151 257.8832 0001794  57.9479 222.5276 15.08861240  3616
STARLINK-3144           
1 49412U 21104E   22077.58334491 -.00003075  00000+0 -17510-3 0  9996
2 49412  53.2189 267.8792 0001979  50.2103 175.1736 15.08853558  3616
STARLINK-3157           
1 49413U 21104F   22077.58334491 -.00013538  00000+0 -83379-3 0  9998
2 49413  53.2166 257.8859 0001841  54.8381 245.7171 15.08852994  3611
STARLINK-3146           
1 49414U 21104G   22077.58334491 -.00002425  00000+0 -13424-3 0  9996
2 49414  53.2143 267.8865 0002036  53.4283 212.0947 15.08851872  3610
STARLINK-3159           
1 49415U 21104H   22077.58334491 -.00013522  00000+0 -83275-3 0  9998
2 49415  53.2168 257.8857 0001995  44.2775 276.2477 15.08853279  3618
STARLINK-3133           
1 49416U 21104J   22077.58334491 -.00002177  00000+0 -11864-3 0  9998
2 49416  53.2141 267.8772 0002077  52.3369 253.1078 15.08860882  3617
STARLINK-3154           
1 49417U 21104K   22077.45446425  .00001615  00000+0  11955-3 0  9991
2 49417  53.2171 258.4615 0002023  49.4526 310.6642 15.08843735 19527
STARLINK-3111           
1 49418U 21104L   22077.58334491 -.00002528  00000+0 -14075-3 0  9997
2 49418  53.2154 267.8720 0001846  46.6752 278.8333 15.08852957  3613
STARLINK-3120           
1 49419U 21104M   22077.58334491 -.00055593  00000+0 -34978-2 0  9991
2 49419  53.2155 267.8709 0001941  51.0510 334.4371 15.08883068  3629
STARLINK-3110           
1 49420U 21104N   22077.58334491 -.00002848  00000+0 -16083-3 0  9996
2 49420  53.2145 267.8684 0002014  50.2031 295.3013 15.08853831  3615
STARLINK-3112           
1 49421U 21104P   22077.58334491 -.00005681  00000+0 -33894-3 0  9994
2 49421  53.2156 267.8689 0001881  54.9702  10.5099 15.08858676  3624
STARLINK-3161           
1 49422U 21104Q   22077.58334491 -.00045649  00000+0 -28658-2 0  9994
2 49422  53.2135 267.8722 0001859  51.3385 314.1712 15.08871812  3625
STARLINK-3149           
1 49423U 21104R   22077.58334491 -.00005084  00000+0 -30129-3 0  9991
2 49423  53.2152 267.8639 0001831  49.5419  55.9037 15.08870515  3628
STARLINK-3135           
1 49424U 21104S   22077.58334491 -.00005015  00000+0 -29706-3 0  9995
2 49424  53.2153 267.8694 0001881  46.1778 359.2328 15.08854666  3629
STARLINK-3139           
1 49425U 21104T   22077.58334491 -.00004830  00000+0 -28555-3 0  9991
2 49425  53.2163 267.8681 0001628  56.0861  69.4818 15.08838641  3628
STARLINK-3114           
1 49426U 21104U   22077.58334491 -.00005902  00000+0 -35286-3 0  9992
2 49426  53.2166 267.8615 0001727  51.4102  34.0331 15.08859002  3628
STARLINK-3131           
1 49427U 21104V   22077.58334491 -.00039974  00000+0 -25055-2 0  9991
2 49427  53.2174 267.8617 0001632  56.1194  89.3738 15.08869118  3610
STARLINK-3121           
1 49428U 21104W   22077.58334491 -.00002993  00000+0 -16994-3 0  9996
2 49428  53.2191 267.8789 0002162  40.6179 159.7095 15.08853612  3610
STARLINK-3138           
1 49430U 21104Y   22077.58334491 -.00003773  00000+0 -21904-3 0  9993
2 49430  53.2170 267.8694 0001928  55.6641 109.8661 15.08847123  3619
STARLINK-3153           
1 49431U 21104Z   22077.58334491 -.00016868  00000+0 -10431-2 0  9995
2 49431  53.2146 267.8680 0001740  52.7573 327.4920 15.08878688  3629
STARLINK-3158           
1 49432U 21104AA  22077.58334491 -.00013993  00000+0 -86232-3 0  9995
2 49432  53.2167 257.8850 0001697  51.8009 303.5069 15.08858214  3617
